CCSDS_OMM_VERS = 2.0
CREATION_DATE  = 
ORIGINATOR     = 

OBJECT_NAME    = STARLINK-35808
OBJECT_ID      = 2026-041N
CENTER_NAME    = EARTH
REF_FRAME      = TEME
TIME_SYSTEM    = UTC
MEAN_ELEMENT_THEORY = SGP/SGP4

EPOCH          = 2026-03-26T10:11:28.751712
MEAN_MOTION    = 15.75278337
ECCENTRICITY   = .000108
INCLINATION    = 53.1590
RA_OF_ASC_NODE = 338.3915
ARG_OF_PERICENTER = 78.8160
MEAN_ANOMALY   = 281.2982

EPHEMERIS_TYPE = 0
CLASSIFICATION_TYPE = U
NORAD_CAT_ID   = 68052
ELEMENT_SET_NO = 999
REV_AT_EPOCH   = 386
BSTAR          = .14621E-2
MEAN_MOTION_DOT = .230077E-2
MEAN_MOTION_DDOT = 0

CCSDS_OMM_VERS = 2.0
CREATION_DATE  = 
ORIGINATOR     = 

OBJECT_NAME    = STARLINK-36919
OBJECT_ID      = 2026-041P
CENTER_NAME    = EARTH
REF_FRAME      = TEME
TIME_SYSTEM    = UTC
MEAN_ELEMENT_THEORY = SGP/SGP4

EPOCH          = 2026-03-26T09:42:43.864704
MEAN_MOTION    = 15.80890245
ECCENTRICITY   = .0001296
INCLINATION    = 53.1593
RA_OF_ASC_NODE = 338.2585
ARG_OF_PERICENTER = 109.2211
MEAN_ANOMALY   = 250.8952

EPHEMERIS_TYPE = 0
CLASSIFICATION_TYPE = U
NORAD_CAT_ID   = 68053
ELEMENT_SET_NO = 999
REV_AT_EPOCH   = 386
BSTAR          = .11407E-2
MEAN_MOTION_DOT = .230743E-2
MEAN_MOTION_DDOT = 0

CCSDS_OMM_VERS = 2.0
CREATION_DATE  = 
ORIGINATOR     = 

OBJECT_NAME    = STARLINK-36924
OBJECT_ID      = 2026-041Q
CENTER_NAME    = EARTH
REF_FRAME      = TEME
TIME_SYSTEM    = UTC
MEAN_ELEMENT_THEORY = SGP/SGP4

EPOCH          = 2026-03-26T04:32:09.417696
MEAN_MOTION    = 15.75340846
ECCENTRICITY   = .00009377
INCLINATION    = 53.1606
RA_OF_ASC_NODE = 339.7742
ARG_OF_PERICENTER = 92.0976
MEAN_ANOMALY   = 268.0152

EPHEMERIS_TYPE = 0
CLASSIFICATION_TYPE = U
NORAD_CAT_ID   = 68054
ELEMENT_SET_NO = 999
REV_AT_EPOCH   = 382
BSTAR          = .13821448E-2
MEAN_MOTION_DOT = .217735E-2
MEAN_MOTION_DDOT = 0

CCSDS_OMM_VERS = 2.0
CREATION_DATE  = 
ORIGINATOR     = 

OBJECT_NAME    = STARLINK-35998
OBJECT_ID      = 2026-041R
CENTER_NAME    = EARTH
REF_FRAME      = TEME
TIME_SYSTEM    = UTC
MEAN_ELEMENT_THEORY = SGP/SGP4

EPOCH          = 2026-03-26T10:04:27.774624
MEAN_MOTION    = 15.75353956
ECCENTRICITY   = .0000377
INCLINATION    = 53.1597
RA_OF_ASC_NODE = 338.3576
ARG_OF_PERICENTER = 300.8754
MEAN_ANOMALY   = 59.2229

EPHEMERIS_TYPE = 0
CLASSIFICATION_TYPE = U
NORAD_CAT_ID   = 68055
ELEMENT_SET_NO = 999
REV_AT_EPOCH   = 386
BSTAR          = .19667E-2
MEAN_MOTION_DOT = .313885E-2
MEAN_MOTION_DDOT = 0

CCSDS_OMM_VERS = 2.0
CREATION_DATE  = 
ORIGINATOR     = 

OBJECT_NAME    = STARLINK-36845
OBJECT_ID      = 2026-041S
CENTER_NAME    = EARTH
REF_FRAME      = TEME
TIME_SYSTEM    = UTC
MEAN_ELEMENT_THEORY = SGP/SGP4

EPOCH          = 2026-03-26T12:00:01.999296
MEAN_MOTION    = 15.75222790
ECCENTRICITY   = .0000981
INCLINATION    = 53.1593
RA_OF_ASC_NODE = 337.9069
ARG_OF_PERICENTER = 67.6388
MEAN_ANOMALY   = 53.5876

EPHEMERIS_TYPE = 0
CLASSIFICATION_TYPE = U
NORAD_CAT_ID   = 68056
ELEMENT_SET_NO = 999
REV_AT_EPOCH   = 507
BSTAR          = .42559E-3
MEAN_MOTION_DOT = .65055E-3
MEAN_MOTION_DDOT = 0

CCSDS_OMM_VERS = 2.0
CREATION_DATE  = 
ORIGINATOR     = 

OBJECT_NAME    = STARLINK-36954
OBJECT_ID      = 2026-041T
CENTER_NAME    = EARTH
REF_FRAME      = TEME
TIME_SYSTEM    = UTC
MEAN_ELEMENT_THEORY = SGP/SGP4

EPOCH          = 2026-03-26T04:31:40.027008
MEAN_MOTION    = 15.75395350
ECCENTRICITY   = .0000774
INCLINATION    = 53.1605
RA_OF_ASC_NODE = 339.7702
ARG_OF_PERICENTER = 117.3680
MEAN_ANOMALY   = 242.7419

EPHEMERIS_TYPE = 0
CLASSIFICATION_TYPE = U
NORAD_CAT_ID   = 68057
ELEMENT_SET_NO = 999
REV_AT_EPOCH   = 382
BSTAR          = .16610828E-2
MEAN_MOTION_DOT = .263886E-2
MEAN_MOTION_DDOT = 0

CCSDS_OMM_VERS = 2.0
CREATION_DATE  = 
ORIGINATOR     = 

OBJECT_NAME    = STARLINK-36899
OBJECT_ID      = 2026-041U
CENTER_NAME    = EARTH
REF_FRAME      = TEME
TIME_SYSTEM    = UTC
MEAN_ELEMENT_THEORY = SGP/SGP4

EPOCH          = 2026-03-26T04:25:37.464960
MEAN_MOTION    = 15.75306953
ECCENTRICITY   = .0000947
INCLINATION    = 53.1600
RA_OF_ASC_NODE = 339.7431
ARG_OF_PERICENTER = 68.3228
MEAN_ANOMALY   = 291.7893

EPHEMERIS_TYPE = 0
CLASSIFICATION_TYPE = U
NORAD_CAT_ID   = 68058
ELEMENT_SET_NO = 999
REV_AT_EPOCH   = 382
BSTAR          = .12100803E-2
MEAN_MOTION_DOT = .189629E-2
MEAN_MOTION_DDOT = 0

CCSDS_OMM_VERS = 2.0
CREATION_DATE  = 
ORIGINATOR     = 

OBJECT_NAME    = STARLINK-36917
OBJECT_ID      = 2026-041V
CENTER_NAME    = EARTH
REF_FRAME      = TEME
TIME_SYSTEM    = UTC
MEAN_ELEMENT_THEORY = SGP/SGP4

EPOCH          = 2026-03-26T10:17:32.240832
MEAN_MOTION    = 15.75279215
ECCENTRICITY   = .0000642
INCLINATION    = 53.1583
RA_OF_ASC_NODE = 338.4184
ARG_OF_PERICENTER = 57.7646
MEAN_ANOMALY   = 302.3437

EPHEMERIS_TYPE = 0
CLASSIFICATION_TYPE = U
NORAD_CAT_ID   = 68059
ELEMENT_SET_NO = 999
REV_AT_EPOCH   = 386
BSTAR          = .13956E-2
MEAN_MOTION_DOT = .219312E-2
MEAN_MOTION_DDOT = 0

CCSDS_OMM_VERS = 2.0
CREATION_DATE  = 
ORIGINATOR     = 

OBJECT_NAME    = STARLINK-36959
OBJECT_ID      = 2026-041W
CENTER_NAME    = EARTH
REF_FRAME      = TEME
TIME_SYSTEM    = UTC
MEAN_ELEMENT_THEORY = SGP/SGP4

EPOCH          = 2026-03-26T04:19:05.234880
MEAN_MOTION    = 15.75344061
ECCENTRICITY   = .00007102
INCLINATION    = 53.1591
RA_OF_ASC_NODE = 339.7112
ARG_OF_PERICENTER = 72.8549
MEAN_ANOMALY   = 287.2549

EPHEMERIS_TYPE = 0
CLASSIFICATION_TYPE = U
NORAD_CAT_ID   = 68060
ELEMENT_SET_NO = 999
REV_AT_EPOCH   = 382
BSTAR          = .16310569E-2
MEAN_MOTION_DOT = .258355E-2
MEAN_MOTION_DDOT = 0

CCSDS_OMM_VERS = 2.0
CREATION_DATE  = 
ORIGINATOR     = 

OBJECT_NAME    = STARLINK-36915
OBJECT_ID      = 2026-041X
CENTER_NAME    = EARTH
REF_FRAME      = TEME
TIME_SYSTEM    = UTC
MEAN_ELEMENT_THEORY = SGP/SGP4

EPOCH          = 2026-03-26T09:58:24.320064
MEAN_MOTION    = 15.75329843
ECCENTRICITY   = .0000599
INCLINATION    = 53.1596
RA_OF_ASC_NODE = 338.3290
ARG_OF_PERICENTER = 83.0735
MEAN_ANOMALY   = 277.0353

EPHEMERIS_TYPE = 0
CLASSIFICATION_TYPE = U
NORAD_CAT_ID   = 68061
ELEMENT_SET_NO = 999
REV_AT_EPOCH   = 386
BSTAR          = .19615E-2
MEAN_MOTION_DOT = .312659E-2
MEAN_MOTION_DDOT = 0

CCSDS_OMM_VERS = 2.0
CREATION_DATE  = 
ORIGINATOR     = 

OBJECT_NAME    = STARLINK-36952
OBJECT_ID      = 2026-041Y
CENTER_NAME    = EARTH
REF_FRAME      = TEME
TIME_SYSTEM    = UTC
MEAN_ELEMENT_THEORY = SGP/SGP4

EPOCH          = 2026-03-26T04:25:08.448384
MEAN_MOTION    = 15.75363872
ECCENTRICITY   = .00016008
INCLINATION    = 53.1598
RA_OF_ASC_NODE = 339.7396
ARG_OF_PERICENTER = 33.0666
MEAN_ANOMALY   = 327.0454

EPHEMERIS_TYPE = 0
CLASSIFICATION_TYPE = U
NORAD_CAT_ID   = 68062
ELEMENT_SET_NO = 999
REV_AT_EPOCH   = 382
BSTAR          = .14815583E-2
MEAN_MOTION_DOT = .234135E-2
MEAN_MOTION_DDOT = 0

CCSDS_OMM_VERS = 2.0
CREATION_DATE  = 
ORIGINATOR     = 

OBJECT_NAME    = STARLINK-37000
OBJECT_ID      = 2026-041Z
CENTER_NAME    = EARTH
REF_FRAME      = TEME
TIME_SYSTEM    = UTC
MEAN_ELEMENT_THEORY = SGP/SGP4

EPOCH          = 2026-03-26T12:00:01.999296
MEAN_MOTION    = 15.75204472
ECCENTRICITY   = .0000909
INCLINATION    = 53.1584
RA_OF_ASC_NODE = 337.9621
ARG_OF_PERICENTER = 125.1811
MEAN_ANOMALY   = 328.4423

EPHEMERIS_TYPE = 0
CLASSIFICATION_TYPE = U
NORAD_CAT_ID   = 68063
ELEMENT_SET_NO = 999
REV_AT_EPOCH   = 507
BSTAR          = .41538E-3
MEAN_MOTION_DOT = .63415E-3
MEAN_MOTION_DDOT = 0

