STARLINK-35808          
1 68052U 26041N   26085.42463833  .00230077  00000+0  14621-2 0  9992
2 68052  53.1590 338.3915 0001080  78.8160 281.2982 15.75278337  3864
STARLINK-36919          
1 68053U 26041P   26085.40467436  .00230743  00000+0  11407-2 0  9993
2 68053  53.1593 338.2585 0001296 109.2211 250.8952 15.80890245  3868
STARLINK-36924          
1 68054U 26041Q   26085.18899789  .00217735  00000+0  13821-2 0  9997
2 68054  53.1606 339.7742 0000937  92.0976 268.0152 15.75340846  3823
STARLINK-35998          
1 68055U 26041R   26085.41976591  .00313885  00000+0  19667-2 0  9998
2 68055  53.1597 338.3576 0000377 300.8754  59.2229 15.75353956  3860
STARLINK-36845          
1 68056U 26041S   26085.50002314  .00065055  00000+0  42559-3 0  9992
2 68056  53.1593 337.9069 0000981  67.6388  53.5876 15.75222790  5072
STARLINK-36954          
1 68057U 26041T   26085.18865772  .00263886  00000+0  16611-2 0  9993
2 68057  53.1605 339.7702 0000774 117.3680 242.7419 15.75395350  3828
STARLINK-36899          
1 68058U 26041U   26085.18446140  .00189629  00000+0  12101-2 0  9990
2 68058  53.1600 339.7431 0000947  68.3228 291.7893 15.75306953  3829
STARLINK-36917          
1 68059U 26041V   26085.42884538  .00219312  00000+0  13956-2 0  9997
2 68059  53.1583 338.4184 0000642  57.7646 302.3437 15.75279215  3866
STARLINK-36959          
1 68060U 26041W   26085.17992170  .00258355  00000+0  16311-2 0  9991
2 68060  53.1591 339.7112 0000710  72.8549 287.2549 15.75344061  3821
STARLINK-36915          
1 68061U 26041X   26085.41555926  .00312659  00000+0  19615-2 0  9991
2 68061  53.1596 338.3290 0000599  83.0735 277.0353 15.75329843  3860
STARLINK-36952          
1 68062U 26041Y   26085.18412556  .00234135  00000+0  14816-2 0  9997
2 68062  53.1598 339.7396 0001600  33.0666 327.0454 15.75363872  3821
STARLINK-37000          
1 68063U 26041Z   26085.50002314  .00063415  00000+0  41538-3 0  9994
2 68063  53.1584 337.9621 0000909 125.1811 328.4423 15.75204472  5074
